{
  "type": "FeatureCollection",
  "features": [
    {
      "type": "Feature",
      "properties": {
        "norad_id": 30998,
        "name": "FENGYUN 1C DEB",
        "group": "fengyun-1c-debris",
        "lat": 4.344479287952873,
        "lon": -111.98052577326335,
        "alt_km": 726.9530084398102,
        "timestamp": "2025-12-09T23:33:24.134547+00:00",
        "meta_object_name": "FENGYUN 1C DEB",
        "meta_object_id": "1999-025BCQ",
        "meta_epoch": "2025-12-09T04:38:11.817312",
        "meta_mean_motion": 14.47795811,
        "meta_eccentricity": 0.00127969,
        "meta_inclination": 98.8287,
        "meta_ra_of_asc_node": 66.5203,
        "meta_arg_of_pericenter": 203.4433,
        "meta_mean_anomaly": 185.5838,
        "meta_ephemeris_type": 0,
        "meta_classification_type": "U",
        "meta_norad_cat_id": 30998,
        "meta_element_set_no": 999,
        "meta_rev_at_epoch": 97139,
        "meta_bstar": 0.0030637432,
        "meta_mean_motion_dot": 0.0001131,
        "meta_mean_motion_ddot": 0,
        "tle_line1": "1 30998U 99025BCQ 25343.19319233  .00011310  00000+0  30637-2 0  9998",
        "tle_line2": "2 30998  98.8287  66.5203 0012796 203.4433 185.5838 14.47795811971393"
      },
      "geometry": {
        "type": "Point",
        "coordinates": [
          -111.98052577326335,
          4.344479287952873
        ]
      }
    },
    {
      "type": "Feature",
      "properties": {
        "norad_id": 30999,
        "name": "FENGYUN 1C DEB",
        "group": "fengyun-1c-debris",
        "lat": -5.427580457868721,
        "lon": -23.41762922095183,
        "alt_km": 777.6992566275503,
        "timestamp": "2025-12-09T23:33:24.134557+00:00",
        "meta_object_name": "FENGYUN 1C DEB",
        "meta_object_id": "1999-025BCR",
        "meta_epoch": "2025-12-06T22:15:22.247712",
        "meta_mean_motion": 14.58370322,
        "meta_eccentricity": 0.01133405,
        "meta_inclination": 99.0902,
        "meta_ra_of_asc_node": 154.1163,
        "meta_arg_of_pericenter": 355.5802,
        "meta_mean_anomaly": 4.4383,
        "meta_ephemeris_type": 0,
        "meta_classification_type": "U",
        "meta_norad_cat_id": 30999,
        "meta_element_set_no": 999,
        "meta_rev_at_epoch": 98746,
        "meta_bstar": 0.00086633418,
        "meta_mean_motion_dot": 4.325e-05,
        "meta_mean_motion_ddot": 0,
        "tle_line1": "1 30999U 99025BCR 25340.92734083  .00004325  00000+0  86633-3 0  9997",
        "tle_line2": "2 30999  99.0902 154.1163 0113340 355.5802   4.4383 14.58370322987463"
      },
      "geometry": {
        "type": "Point",
        "coordinates": [
          -23.41762922095183,
          -5.427580457868721
        ]
      }
    },
    {
      "type": "Feature",
      "properties": {
        "norad_id": 31000,
        "name": "FENGYUN 1C DEB",
        "group": "fengyun-1c-debris",
        "lat": -51.14367516008866,
        "lon": 22.564069626950307,
        "alt_km": 936.6510640590832,
        "timestamp": "2025-12-09T23:33:24.134567+00:00",
        "meta_object_name": "FENGYUN 1C DEB",
        "meta_object_id": "1999-025BCS",
        "meta_epoch": "2025-12-08T08:41:35.560032",
        "meta_mean_motion": 14.09629217,
        "meta_eccentricity": 0.01656555,
        "meta_inclination": 97.5666,
        "meta_ra_of_asc_node": 11.7048,
        "meta_arg_of_pericenter": 78.9929,
        "meta_mean_anomaly": 298.106,
        "meta_ephemeris_type": 0,
        "meta_classification_type": "U",
        "meta_norad_cat_id": 31000,
        "meta_element_set_no": 999,
        "meta_rev_at_epoch": 69895,
        "meta_bstar": 0.00098164073,
        "meta_mean_motion_dot": 1.921e-05,
        "meta_mean_motion_ddot": 0,
        "tle_line1": "1 31000U 99025BCS 25342.36221713  .00001921  00000+0  98164-3 0  9993",
        "tle_line2": "2 31000  97.5666  11.7048 0165655  78.9929 298.1060 14.09629217698952"
      },
      "geometry": {
        "type": "Point",
        "coordinates": [
          22.564069626950307,
          -51.14367516008866
        ]
      }
    },
    {
      "type": "Feature",
      "properties": {
        "norad_id": 31001,
        "name": "FENGYUN 1C DEB",
        "group": "fengyun-1c-debris",
        "lat": 71.48962180182245,
        "lon": 65.83265296927047,
        "alt_km": 680.5392779163531,
        "timestamp": "2025-12-09T23:33:24.134578+00:00",
        "meta_object_name": "FENGYUN 1C DEB",
        "meta_object_id": "1999-025BCT",
        "meta_epoch": "2025-12-09T03:05:27.869856",
        "meta_mean_motion": 14.42844718,
        "meta_eccentricity": 0.01467757,
        "meta_inclination": 99.2726,
        "meta_ra_of_asc_node": 215.6981,
        "meta_arg_of_pericenter": 163.1615,
        "meta_mean_anomaly": 197.452,
        "meta_ephemeris_type": 0,
        "meta_classification_type": "U",
        "meta_norad_cat_id": 31001,
        "meta_element_set_no": 999,
        "meta_rev_at_epoch": 98154,
        "meta_bstar": 0.0004939236,
        "meta_mean_motion_dot": 1.82e-05,
        "meta_mean_motion_ddot": 0,
        "tle_line1": "1 31001U 99025BCT 25343.12879479  .00001820  00000+0  49392-3 0  9994",
        "tle_line2": "2 31001  99.2726 215.6981 0146775 163.1615 197.4520 14.42844718981545"
      },
      "geometry": {
        "type": "Point",
        "coordinates": [
          65.83265296927047,
          71.48962180182245
        ]
      }
    },
    {
      "type": "Feature",
      "properties": {
        "norad_id": 31002,
        "name": "FENGYUN 1C DEB",
        "group": "fengyun-1c-debris",
        "lat": -42.39341019575894,
        "lon": 167.8118489111667,
        "alt_km": 951.3176012300364,
        "timestamp": "2025-12-09T23:33:24.134588+00:00",
        "meta_object_name": "FENGYUN 1C DEB",
        "meta_object_id": "1999-025BCU",
        "meta_epoch": "2025-12-09T00:18:31.049568",
        "meta_mean_motion": 13.99198065,
        "meta_eccentricity": 0.00991708,
        "meta_inclination": 98.8861,
        "meta_ra_of_asc_node": 355.0833,
        "meta_arg_of_pericenter": 357.952,
        "meta_mean_anomaly": 29.2148,
        "meta_ephemeris_type": 0,
        "meta_classification_type": "U",
        "meta_norad_cat_id": 31002,
        "meta_element_set_no": 999,
        "meta_rev_at_epoch": 95553,
        "meta_bstar": 0.00037633165,
        "meta_mean_motion_dot": 5.26e-06,
        "meta_mean_motion_ddot": 0,
        "tle_line1": "1 31002U 99025BCU 25343.01285937  .00000526  00000+0  37633-3 0  9990",
        "tle_line2": "2 31002  98.8861 355.0833 0099170 357.9520  29.2148 13.99198065955536"
      },
      "geometry": {
        "type": "Point",
        "coordinates": [
          167.8118489111667,
          -42.39341019575894
        ]
      }
    },
    {
      "type": "Feature",
      "properties": {
        "norad_id": 31003,
        "name": "FENGYUN 1C DEB",
        "group": "fengyun-1c-debris",
        "lat": -32.94018101872776,
        "lon": 66.54406311741305,
        "alt_km": 823.1481126758445,
        "timestamp": "2025-12-09T23:33:24.134598+00:00",
        "meta_object_name": "FENGYUN 1C DEB",
        "meta_object_id": "1999-025BCV",
        "meta_epoch": "2025-12-09T03:29:13.112160",
        "meta_mean_motion": 14.24658895,
        "meta_eccentricity": 0.00415074,
        "meta_inclination": 98.8431,
        "meta_ra_of_asc_node": 59.9131,
        "meta_arg_of_pericenter": 224.4415,
        "meta_mean_anomaly": 135.3431,
        "meta_ephemeris_type": 0,
        "meta_classification_type": "U",
        "meta_norad_cat_id": 31003,
        "meta_element_set_no": 999,
        "meta_rev_at_epoch": 96458,
        "meta_bstar": 0.001774389,
        "meta_mean_motion_dot": 4.119e-05,
        "meta_mean_motion_ddot": 0,
        "tle_line1": "1 31003U 99025BCV 25343.14529065  .00004119  00000+0  17744-2 0  9990",
        "tle_line2": "2 31003  98.8431  59.9131 0041507 224.4415 135.3431 14.24658895964583"
      },
      "geometry": {
        "type": "Point",
        "coordinates": [
          66.54406311741305,
          -32.94018101872776
        ]
      }
    },
    {
      "type": "Feature",
      "properties": {
        "norad_id": 31005,
        "name": "FENGYUN 1C DEB",
        "group": "fengyun-1c-debris",
        "lat": -56.83017126848368,
        "lon": 131.3690259821512,
        "alt_km": 845.0608191485535,
        "timestamp": "2025-12-09T23:33:24.134609+00:00",
        "meta_object_name": "FENGYUN 1C DEB",
        "meta_object_id": "1999-025BCX",
        "meta_epoch": "2025-12-08T20:47:14.873568",
        "meta_mean_motion": 13.83265387,
        "meta_eccentricity": 0.01804679,
        "meta_inclination": 98.6131,
        "meta_ra_of_asc_node": 116.9395,
        "meta_arg_of_pericenter": 336.0404,
        "meta_mean_anomaly": 175.9068,
        "meta_ephemeris_type": 0,
        "meta_classification_type": "U",
        "meta_norad_cat_id": 31005,
        "meta_element_set_no": 999,
        "meta_rev_at_epoch": 94227,
        "meta_bstar": 0.001772477,
        "meta_mean_motion_dot": 2.165e-05,
        "meta_mean_motion_ddot": 0,
        "tle_line1": "1 31005U 99025BCX 25342.86614437  .00002165  00000+0  17725-2 0  9996",
        "tle_line2": "2 31005  98.6131 116.9395 0180467 336.0404 175.9068 13.83265387942275"
      },
      "geometry": {
        "type": "Point",
        "coordinates": [
          131.3690259821512,
          -56.83017126848368
        ]
      }
    }
  ]
}